{"type": "FeatureCollection", "features": [ {"type": "Feature", "properties": {"norad_id": 66810, "name": "STARLINK-36046", "group": "last-30-days", "lat": -8.447799772285384, "lon": 152.57639962858872, "alt_km": 415.5556896725893, "timestamp": "2025-12-27T20:30:58.022703+00:00", "meta": {"OBJECT_NAME": "STARLINK-36046", "OBJECT_ID": "2025-278V", "EPOCH": "2025-12-27T00:00:02.999808", "MEAN_MOTION": 15.50568345, "ECCENTRICITY": 0.00015311, "INCLINATION": 43, "RA_OF_ASC_NODE": 166.7484, "ARG_OF_PERICENTER": 272.8452, "MEAN_ANOMALY": 337.5404, "EPHEMERIS_TYPE": 0, "CLASSIFICATION_TYPE": "U", "NORAD_CAT_ID": 66810, "ELEMENT_SET_NO": 999, "REV_AT_EPOCH": 502, "BSTAR": -0.00020906802, "MEAN_MOTION_DOT": -0.00012582, "MEAN_MOTION_DDOT": 0}, "tle": {"line1": "1 66810U 25278V   25361.00003472 -.00012582  00000+0 -20907-3 0  9998", "line2": "2 66810  43.0000 166.7484 0001531 272.8452 337.5404 15.50568345  5021"}}, "geometry": {"type": "Point", "coordinates": [152.57639962858872, -8.447799772285384]}}, {"type": "Feature", "properties": {"norad_id": 66811, "name": "STARLINK-36045", "group": "last-30-days", "lat": -7.167312640735732, "lon": 153.98692606174112, "alt_km": 415.44034343257954, "timestamp": "2025-12-27T20:30:58.022713+00:00", "meta": {"OBJECT_NAME": "STARLINK-36045", "OBJECT_ID": "2025-278W", "EPOCH": "2025-12-27T00:00:02.999808", "MEAN_MOTION": 15.50574589, "ECCENTRICITY": 0.00015029, "INCLINATION": 43, "RA_OF_ASC_NODE": 166.7434, "ARG_OF_PERICENTER": 276.2762, "MEAN_ANOMALY": 336.0265, "EPHEMERIS_TYPE": 0, "CLASSIFICATION_TYPE": "U", "NORAD_CAT_ID": 66811, "ELEMENT_SET_NO": 999, "REV_AT_EPOCH": 525, "BSTAR": -0.00044570011, "MEAN_MOTION_DOT": -0.00026396, "MEAN_MOTION_DDOT": 0}, "tle": {"line1": "1 66811U 25278W   25361.00003472 -.00026396  00000+0 -44570-3 0  9999", "line2": "2 66811  43.0000 166.7434 0001502 276.2762 336.0265 15.50574589  5258"}}, "geometry": {"type": "Point", "coordinates": [153.98692606174112, -7.167312640735732]}}, {"type": "Feature", "properties": {"norad_id": 66812, "name": "STARLINK-36054", "group": "last-30-days", "lat": -4.59823856633887, "lon": 156.7824775108473, "alt_km": 415.19065645222327, "timestamp": "2025-12-27T20:30:58.022726+00:00", "meta": {"OBJECT_NAME": "STARLINK-36054", "OBJECT_ID": "2025-278X", "EPOCH": "2025-12-27T00:00:02.999808", "MEAN_MOTION": 15.50590752, "ECCENTRICITY": 0.00015537, "INCLINATION": 43.0001, "RA_OF_ASC_NODE": 166.7346, "ARG_OF_PERICENTER": 283.3881, "MEAN_ANOMALY": 332.7504, "EPHEMERIS_TYPE": 0, "CLASSIFICATION_TYPE": "U", "NORAD_CAT_ID": 66812, "ELEMENT_SET_NO": 999, "REV_AT_EPOCH": 525, "BSTAR": -0.0010498251, "MEAN_MOTION_DOT": -0.00061474, "MEAN_MOTION_DDOT": 0}, "tle": {"line1": "1 66812U 25278X   25361.00003472 -.00061474  00000+0 -10498-2 0  9997", "line2": "2 66812  43.0001 166.7346 0001553 283.3881 332.7504 15.50590752  5258"}}, "geometry": {"type": "Point", "coordinates": [156.7824775108473, -4.59823856633887]}}, {"type": "Feature", "properties": {"norad_id": 66813, "name": "STARLINK-36042", "group": "last-30-days", "lat": -3.2832872172474543, "lon": 158.19844890334497, "alt_km": 415.2917661050633, "timestamp": "2025-12-27T20:30:58.022736+00:00", "meta": {"OBJECT_NAME": "STARLINK-36042", "OBJECT_ID": "2025-278Y", "EPOCH": "2025-12-27T00:00:02.999808", "MEAN_MOTION": 15.50582259, "ECCENTRICITY": 0.00014738, "INCLINATION": 43.0001, "RA_OF_ASC_NODE": 166.7288, "ARG_OF_PERICENTER": 268.2974, "MEAN_ANOMALY": 349.7609, "EPHEMERIS_TYPE": 0, "CLASSIFICATION_TYPE": "U", "NORAD_CAT_ID": 66813, "ELEMENT_SET_NO": 999, "REV_AT_EPOCH": 525, "BSTAR": -0.00079082002, "MEAN_MOTION_DOT": -0.00046466, "MEAN_MOTION_DDOT": 0}, "tle": {"line1": "1 66813U 25278Y   25361.00003472 -.00046466  00000+0 -79082-3 0  9997", "line2": "2 66813  43.0001 166.7288 0001473 268.2974 349.7609 15.50582259  5257"}}, "geometry": {"type": "Point", "coordinates": [158.19844890334497, -3.2832872172474543]}}, {"type": "Feature", "properties": {"norad_id": 66814, "name": "STARLINK-35984", "group": "last-30-days", "lat": -10.58750522251448, "lon": 150.18316548441567, "alt_km": 437.56828449323257, "timestamp": "2025-12-27T20:30:58.022746+00:00", "meta": {"OBJECT_NAME": "STARLINK-35984", "OBJECT_ID": "2025-278Z", "EPOCH": "2025-12-27T12:00:02.000160", "MEAN_MOTION": 15.44702382, "ECCENTRICITY": 0.0001228, "INCLINATION": 42.9995, "RA_OF_ASC_NODE": 163.8098, "ARG_OF_PERICENTER": 277.5179, "MEAN_ANOMALY": 252.4892, "EPHEMERIS_TYPE": 0, "CLASSIFICATION_TYPE": "U", "NORAD_CAT_ID": 66814, "ELEMENT_SET_NO": 999, "REV_AT_EPOCH": 542, "BSTAR": -0.048427, "MEAN_MOTION_DOT": -0.02056682, "MEAN_MOTION_DDOT": 0}, "tle": {"line1": "1 66814U 25278Z   25361.50002315 -.02056682  00000+0 -48427-1 0  9998", "line2": "2 66814  42.9995 163.8098 0001228 277.5179 252.4892 15.44702382  5420"}}, "geometry": {"type": "Point", "coordinates": [150.18316548441567, -10.58750522251448]}}, {"type": "Feature", "properties": {"norad_id": 66815, "name": "STARLINK-35985", "group": "last-30-days", "lat": 3.276994631026143, "lon": 165.22505238311888, "alt_km": 414.34553692399186, "timestamp": "2025-12-27T20:30:58.022757+00:00", "meta": {"OBJECT_NAME": "STARLINK-35985", "OBJECT_ID": "2025-278AA", "EPOCH": "2025-12-27T00:00:02.999808", "MEAN_MOTION": 15.50566195, "ECCENTRICITY": 0.00016144, "INCLINATION": 43.0001, "RA_OF_ASC_NODE": 166.7033, "ARG_OF_PERICENTER": 275.4195, "MEAN_ANOMALY": 352.2235, "EPHEMERIS_TYPE": 0, "CLASSIFICATION_TYPE": "U", "NORAD_CAT_ID": 66815, "ELEMENT_SET_NO": 999, "REV_AT_EPOCH": 533, "BSTAR": -0.0002007945, "MEAN_MOTION_DOT": -0.00012098, "MEAN_MOTION_DDOT": 0}, "tle": {"line1": "1 66815U 25278AA  25361.00003472 -.00012098  00000+0 -20079-3 0  9995", "line2": "2 66815  43.0001 166.7033 0001614 275.4195 352.2235 15.50566195  5333"}}, "geometry": {"type": "Point", "coordinates": [165.22505238311888, 3.276994631026143]}}, {"type": "Feature", "properties": {"norad_id": 66816, "name": "STARLINK-36098", "group": "last-30-days", "lat": -1.9843109144285964, "lon": 159.59229576317054, "alt_km": 415.18506197444367, "timestamp": "2025-12-27T20:30:58.022769+00:00", "meta": {"OBJECT_NAME": "STARLINK-36098", "OBJECT_ID": "2025-278AB", "EPOCH": "2025-12-27T00:00:02.999808", "MEAN_MOTION": 15.50588317, "ECCENTRICITY": 0.00015046, "INCLINATION": 43.0001, "RA_OF_ASC_NODE": 166.7239, "ARG_OF_PERICENTER": 268.7963, "MEAN_ANOMALY": 351.1783, "EPHEMERIS_TYPE": 0, "CLASSIFICATION_TYPE": "U", "NORAD_CAT_ID": 66816, "ELEMENT_SET_NO": 999, "REV_AT_EPOCH": 509, "BSTAR": -0.00097010292, "MEAN_MOTION_DOT": -0.0005686, "MEAN_MOTION_DDOT": 0}, "tle": {"line1": "1 66816U 25278AB  25361.00003472 -.00056860  00000+0 -97010-3 0  9990", "line2": "2 66816  43.0001 166.7239 0001504 268.7963 351.1783 15.50588317  5097"}}, "geometry": {"type": "Point", "coordinates": [159.59229576317054, -1.9843109144285964]}}, {"type": "Feature", "properties": {"norad_id": 66817, "name": "STARLINK-35995", "group": "last-30-days", "lat": 0.6565657513459003, "lon": 162.41730405198481, "alt_km": 414.67756488843406, "timestamp": "2025-12-27T20:30:58.022779+00:00", "meta": {"OBJECT_NAME": "STARLINK-35995", "OBJECT_ID": "2025-278AC", "EPOCH": "2025-12-27T00:00:02.999808", "MEAN_MOTION": 15.50570945, "ECCENTRICITY": 0.00016404, "INCLINATION": 43.0001, "RA_OF_ASC_NODE": 166.7136, "ARG_OF_PERICENTER": 274.3713, "MEAN_ANOMALY": 349.4376, "EPHEMERIS_TYPE": 0, "CLASSIFICATION_TYPE": "U", "NORAD_CAT_ID": 66817, "ELEMENT_SET_NO": 999, "REV_AT_EPOCH": 525, "BSTAR": -0.00037422385, "MEAN_MOTION_DOT": -0.00022227, "MEAN_MOTION_DDOT": 0}, "tle": {"line1": "1 66817U 25278AC  25361.00003472 -.00022227  00000+0 -37422-3 0  9992", "line2": "2 66817  43.0001 166.7136 0001640 274.3713 349.4376 15.50570945  5255"}}, "geometry": {"type": "Point", "coordinates": [162.41730405198481, 0.6565657513459003]}}, {"type": "Feature", "properties": {"norad_id": 66818, "name": "STARLINK-35994", "group": "last-30-days", "lat": -37.48230988155646, "lon": 106.49118281795366, "alt_km": 445.76270350091363, "timestamp": "2025-12-27T20:30:58.022791+00:00", "meta": {"OBJECT_NAME": "STARLINK-35994", "OBJECT_ID": "2025-278AD", "EPOCH": "2025-12-27T12:00:02.000160", "MEAN_MOTION": 15.40647901, "ECCENTRICITY": 0.0002193, "INCLINATION": 43.0001, "RA_OF_ASC_NODE": 163.9136, "ARG_OF_PERICENTER": 281.9967, "MEAN_ANOMALY": 204.5538, "EPHEMERIS_TYPE": 0, "CLASSIFICATION_TYPE": "U", "NORAD_CAT_ID": 66818, "ELEMENT_SET_NO": 999, "REV_AT_EPOCH": 533, "BSTAR": 0.0012514, "MEAN_MOTION_DOT": 0.0005224, "MEAN_MOTION_DDOT": 0}, "tle": {"line1": "1 66818U 25278AD  25361.50002315  .00052240  00000+0  12514-2 0  9993", "line2": "2 66818  43.0001 163.9136 0002193 281.9967 204.5538 15.40647901  5330"}}, "geometry": {"type": "Point", "coordinates": [106.49118281795366, -37.48230988155646]}}, {"type": "Feature", "properties": {"norad_id": 66819, "name": "STARLINK-35989", "group": "last-30-days", "lat": 1.9637312437692915, "lon": 163.8160147484073, "alt_km": 414.5426401001514, "timestamp": "2025-12-27T20:30:58.022802+00:00", "meta": {"OBJECT_NAME": "STARLINK-35989", "OBJECT_ID": "2025-278AE", "EPOCH": "2025-12-27T00:00:02.999808", "MEAN_MOTION": 15.50571322, "ECCENTRICITY": 0.00014601, "INCLINATION": 43.0001, "RA_OF_ASC_NODE": 166.7083, "ARG_OF_PERICENTER": 275.0069, "MEAN_ANOMALY": 350.7199, "EPHEMERIS_TYPE": 0, "CLASSIFICATION_TYPE": "U", "NORAD_CAT_ID": 66819, "ELEMENT_SET_NO": 999, "REV_AT_EPOCH": 525, "BSTAR": -0.00037010918, "MEAN_MOTION_DOT": -0.00021987, "MEAN_MOTION_DDOT": 0}, "tle": {"line1": "1 66819U 25278AE  25361.00003472 -.00021987  00000+0 -37011-3 0  9990", "line2": "2 66819  43.0001 166.7083 0001460 275.0069 350.7199 15.50571322  5258"}}, "geometry": {"type": "Point", "coordinates": [163.8160147484073, 1.9637312437692915]}}]}